[{"OBJECT_NAME":"STARLINK-32618","OBJECT_ID":"2024-216P","EPOCH":"2025-10-10T18:13:34.570560","MEAN_MOTION":15.27642105,"ECCENTRICITY":0.00016394,"INCLINATION":43.0038,"RA_OF_ASC_NODE":23.227,"ARG_OF_PERICENTER":286.8656,"MEAN_ANOMALY":73.2016,"EPHEMERIS_TYPE":0,"CLASSIFICATION_TYPE":"U","NORAD_CAT_ID":62045,"ELEMENT_SET_NO":999,"REV_AT_EPOCH":5094,"BSTAR":0.0015881912,"MEAN_MOTION_DOT":0.00043785,"MEAN_MOTION_DDOT":0},{"OBJECT_NAME":"STARLINK-32598","OBJECT_ID":"2024-216Q","EPOCH":"2025-10-11T07:08:49.504416","MEAN_MOTION":15.27584826,"ECCENTRICITY":8.459e-5,"INCLINATION":43.0022,"RA_OF_ASC_NODE":19.5315,"ARG_OF_PERICENTER":284.1347,"MEAN_ANOMALY":75.941,"EPHEMERIS_TYPE":0,"CLASSIFICATION_TYPE":"U","NORAD_CAT_ID":62046,"ELEMENT_SET_NO":999,"REV_AT_EPOCH":5103,"BSTAR":0.0010499455,"MEAN_MOTION_DOT":0.00028747,"MEAN_MOTION_DDOT":0},{"OBJECT_NAME":"STARLINK-32630","OBJECT_ID":"2024-216R","EPOCH":"2025-10-11T07:02:05.354592","MEAN_MOTION":15.27622337,"ECCENTRICITY":0.00019543,"INCLINATION":43.0058,"RA_OF_ASC_NODE":27.2791,"ARG_OF_PERICENTER":287.4881,"MEAN_ANOMALY":72.5757,"EPHEMERIS_TYPE":0,"CLASSIFICATION_TYPE":"U","NORAD_CAT_ID":62047,"ELEMENT_SET_NO":999,"REV_AT_EPOCH":5094,"BSTAR":0.0012025383,"MEAN_MOTION_DOT":0.00033021,"MEAN_MOTION_DDOT":0},{"OBJECT_NAME":"STARLINK-32599","OBJECT_ID":"2024-216S","EPOCH":"2025-10-11T07:07:39.024480","MEAN_MOTION":15.27592254,"ECCENTRICITY":0.00014011,"INCLINATION":43.003,"RA_OF_ASC_NODE":27.308,"ARG_OF_PERICENTER":268.8458,"MEAN_ANOMALY":91.2233,"EPHEMERIS_TYPE":0,"CLASSIFICATION_TYPE":"U","NORAD_CAT_ID":62048,"ELEMENT_SET_NO":999,"REV_AT_EPOCH":5094,"BSTAR":0.001000268,"MEAN_MOTION_DOT":0.00027376,"MEAN_MOTION_DDOT":0},{"OBJECT_NAME":"STARLINK-32473","OBJECT_ID":"2024-216T","EPOCH":"2025-10-11T06:33:52.653312","MEAN_MOTION":15.27614724,"ECCENTRICITY":0.00010199,"INCLINATION":43.0015,"RA_OF_ASC_NODE":20.2107,"ARG_OF_PERICENTER":287.8135,"MEAN_ANOMALY":72.2606,"EPHEMERIS_TYPE":0,"CLASSIFICATION_TYPE":"U","NORAD_CAT_ID":62049,"ELEMENT_SET_NO":999,"REV_AT_EPOCH":4986,"BSTAR":0.001264708,"MEAN_MOTION_DOT":0.00034741,"MEAN_MOTION_DDOT":0},{"OBJECT_NAME":"STARLINK-32492","OBJECT_ID":"2024-216U","EPOCH":"2025-10-11T06:30:38.156544","MEAN_MOTION":15.27611769,"ECCENTRICITY":2.417e-5,"INCLINATION":42.9981,"RA_OF_ASC_NODE":27.1135,"ARG_OF_PERICENTER":249.4446,"MEAN_ANOMALY":110.638,"EPHEMERIS_TYPE":0,"CLASSIFICATION_TYPE":"U","NORAD_CAT_ID":62050,"ELEMENT_SET_NO":999,"REV_AT_EPOCH":5094,"BSTAR":0.0010795929,"MEAN_MOTION_DOT":0.00029594,"MEAN_MOTION_DDOT":0},{"OBJECT_NAME":"STARLINK-32496","OBJECT_ID":"2024-216V","EPOCH":"2025-10-11T07:22:26.854464","MEAN_MOTION":15.27603937,"ECCENTRICITY":1.364e-5,"INCLINATION":42.9966,"RA_OF_ASC_NODE":27.3855,"ARG_OF_PERICENTER":181.0515,"MEAN_ANOMALY":179.0336,"EPHEMERIS_TYPE":0,"CLASSIFICATION_TYPE":"U","NORAD_CAT_ID":62051,"ELEMENT_SET_NO":999,"REV_AT_EPOCH":5094,"BSTAR":0.0010613595,"MEAN_MOTION_DOT":0.00029081,"MEAN_MOTION_DDOT":0},{"OBJECT_NAME":"STARLINK-32495","OBJECT_ID":"2024-216W","EPOCH":"2025-10-11T07:38:53.024928","MEAN_MOTION":15.27625631,"ECCENTRICITY":0.00012329,"INCLINATION":43.003,"RA_OF_ASC_NODE":26.6034,"ARG_OF_PERICENTER":273.895,"MEAN_ANOMALY":86.1761,"EPHEMERIS_TYPE":0,"CLASSIFICATION_TYPE":"U","NORAD_CAT_ID":62052,"ELEMENT_SET_NO":999,"REV_AT_EPOCH":5095,"BSTAR":0.0015166071,"MEAN_MOTION_DOT":0.00041766,"MEAN_MOTION_DDOT":0},{"OBJECT_NAME":"STARLINK-32494","OBJECT_ID":"2024-216X","EPOCH":"2025-10-11T06:41:44.570112","MEAN_MOTION":15.27606276,"ECCENTRICITY":9.689e-5,"INCLINATION":42.9999,"RA_OF_ASC_NODE":27.1689,"ARG_OF_PERICENTER":245.3042,"MEAN_ANOMALY":114.7708,"EPHEMERIS_TYPE":0,"CLASSIFICATION_TYPE":"U","NORAD_CAT_ID":62053,"ELEMENT_SET_NO":999,"REV_AT_EPOCH":5094,"BSTAR":0.00095871206,"MEAN_MOTION_DOT":0.00026235,"MEAN_MOTION_DDOT":0},{"OBJECT_NAME":"STARLINK-32408","OBJECT_ID":"2024-216Y","EPOCH":"2025-10-11T08:02:29.452704","MEAN_MOTION":15.27610787,"ECCENTRICITY":0.00015195,"INCLINATION":43.0038,"RA_OF_ASC_NODE":19.8085,"ARG_OF_PERICENTER":188.2579,"MEAN_ANOMALY":171.8248,"EPHEMERIS_TYPE":0,"CLASSIFICATION_TYPE":"U","NORAD_CAT_ID":62054,"ELEMENT_SET_NO":999,"REV_AT_EPOCH":5104,"BSTAR":0.0009766151,"MEAN_MOTION_DOT":0.00026735,"MEAN_MOTION_DDOT":0},{"OBJECT_NAME":"STARLINK-32571","OBJECT_ID":"2024-216Z","EPOCH":"2025-10-11T07:03:16.631136","MEAN_MOTION":15.2761292,"ECCENTRICITY":0.00010982,"INCLINATION":43.0024,"RA_OF_ASC_NODE":19.4956,"ARG_OF_PERICENTER":275.7894,"MEAN_ANOMALY":84.2833,"EPHEMERIS_TYPE":0,"CLASSIFICATION_TYPE":"U","NORAD_CAT_ID":62055,"ELEMENT_SET_NO":999,"REV_AT_EPOCH":5113,"BSTAR":0.0015462666,"MEAN_MOTION_DOT":0.00042576,"MEAN_MOTION_DDOT":0},{"OBJECT_NAME":"STARLINK-11465 [DTC]","OBJECT_ID":"2024-217A","EPOCH":"2025-10-11T04:14:41.939520","MEAN_MOTION":15.69802591,"ECCENTRICITY":0.0002746,"INCLINATION":53.1566,"RA_OF_ASC_NODE":88.0991,"ARG_OF_PERICENTER":73.574,"MEAN_ANOMALY":286.558,"EPHEMERIS_TYPE":0,"CLASSIFICATION_TYPE":"U","NORAD_CAT_ID":62057,"ELEMENT_SET_NO":999,"REV_AT_EPOCH":5169,"BSTAR":0.0028593443,"MEAN_MOTION_DOT":0.00362786,"MEAN_MOTION_DDOT":0},{"OBJECT_NAME":"STARLINK-11426 [DTC]","OBJECT_ID":"2024-217B","EPOCH":"2025-10-11T04:07:37.368192","MEAN_MOTION":15.69766173,"ECCENTRICITY":0.00010036,"INCLINATION":53.1569,"RA_OF_ASC_NODE":88.066,"ARG_OF_PERICENTER":61.3704,"MEAN_ANOMALY":298.7415,"EPHEMERIS_TYPE":0,"CLASSIFICATION_TYPE":"U","NORAD_CAT_ID":62058,"ELEMENT_SET_NO":999,"REV_AT_EPOCH":5163,"BSTAR":0.0019649741,"MEAN_MOTION_DOT":0.00245206,"MEAN_MOTION_DDOT":0},{"OBJECT_NAME":"STARLINK-11454 [DTC]","OBJECT_ID":"2024-217C","EPOCH":"2025-10-11T06:28:44.924160","MEAN_MOTION":15.69772722,"ECCENTRICITY":7.723e-5,"INCLINATION":53.1571,"RA_OF_ASC_NODE":87.9797,"ARG_OF_PERICENTER":130.1719,"MEAN_ANOMALY":229.9367,"EPHEMERIS_TYPE":0,"CLASSIFICATION_TYPE":"U","NORAD_CAT_ID":62059,"ELEMENT_SET_NO":999,"REV_AT_EPOCH":5170,"BSTAR":0.0016240785,"MEAN_MOTION_DOT":0.00201544,"MEAN_MOTION_DDOT":0},{"OBJECT_NAME":"STARLINK-11473 [DTC]","OBJECT_ID":"2024-217D","EPOCH":"2025-10-11T06:42:52.543584","MEAN_MOTION":15.69790724,"ECCENTRICITY":0.00023945,"INCLINATION":53.1569,"RA_OF_ASC_NODE":88.0411,"ARG_OF_PERICENTER":148.1127,"MEAN_ANOMALY":212.0036,"EPHEMERIS_TYPE":0,"CLASSIFICATION_TYPE":"U","NORAD_CAT_ID":62060,"ELEMENT_SET_NO":999,"REV_AT_EPOCH":5170,"BSTAR":0.0018050774,"MEAN_MOTION_DOT":0.00224881,"MEAN_MOTION_DDOT":0},{"OBJECT_NAME":"STARLINK-11429 [DTC]","OBJECT_ID":"2024-217E","EPOCH":"2025-10-11T06:21:41.264352","MEAN_MOTION":15.69769143,"ECCENTRICITY":5.026e-5,"INCLINATION":53.1573,"RA_OF_ASC_NODE":87.9465,"ARG_OF_PERICENTER":105.6865,"MEAN_ANOMALY":254.4209,"EPHEMERIS_TYPE":0,"CLASSIFICATION_TYPE":"U","NORAD_CAT_ID":62061,"ELEMENT_SET_NO":999,"REV_AT_EPOCH":5170,"BSTAR":0.0014012808,"MEAN_MOTION_DOT":0.0017319,"MEAN_MOTION_DDOT":0}]
