STARLINK-32618          
1 62045U 24216P   25283.75942790  .00043785  00000+0  15882-2 0  9997
2 62045  43.0038  23.2270 0001639 286.8656  73.2016 15.27642105 50943
STARLINK-32598          
1 62046U 24216Q   25284.29779519  .00028747  00000+0  10499-2 0  9995
2 62046  43.0022  19.5315 0000845 284.1347  75.9410 15.27584826 51034
STARLINK-32630          
1 62047U 24216R   25284.29311753  .00033021  00000+0  12025-2 0  9996
2 62047  43.0058  27.2791 0001954 287.4881  72.5757 15.27622337 50945
STARLINK-32599          
1 62048U 24216S   25284.29697945  .00027376  00000+0  10003-2 0  9997
2 62048  43.0030  27.3080 0001401 268.8458  91.2233 15.27592254 50949
STARLINK-32473          
1 62049U 24216T   25284.27352608  .00034741  00000+0  12647-2 0  9990
2 62049  43.0015  20.2107 0001019 287.8135  72.2606 15.27614724 49862
STARLINK-32492          
1 62050U 24216U   25284.27127496  .00029594  00000+0  10796-2 0  9990
2 62050  42.9981  27.1135 0000241 249.4446 110.6380 15.27611769 50949
STARLINK-32496          
1 62051U 24216V   25284.30725526  .00029081  00000+0  10614-2 0  9993
2 62051  42.9966  27.3855 0000136 181.0515 179.0336 15.27603937 50943
STARLINK-32495          
1 62052U 24216W   25284.31866927  .00041766  00000+0  15166-2 0  9997
2 62052  43.0030  26.6034 0001232 273.8950  86.1761 15.27625631 50956
STARLINK-32494          
1 62053U 24216X   25284.27898808  .00026235  00000+0  95871-3 0  9992
2 62053  42.9999  27.1689 0000968 245.3042 114.7708 15.27606276 50944
STARLINK-32408          
1 62054U 24216Y   25284.33506311  .00026735  00000+0  97662-3 0  9990
2 62054  43.0038  19.8085 0001519 188.2579 171.8248 15.27610787 51049
STARLINK-32571          
1 62055U 24216Z   25284.29394249  .00042576  00000+0  15463-2 0  9990
2 62055  43.0024  19.4956 0001098 275.7894  84.2833 15.27612920 51130
STARLINK-11465 [DTC]    
1 62057U 24217A   25284.17687430  .00362786  00000+0  28593-2 0  9993
2 62057  53.1566  88.0991 0002746  73.5740 286.5580 15.69802591 51699
STARLINK-11426 [DTC]    
1 62058U 24217B   25284.17196028  .00245206  00000+0  19650-2 0  9993
2 62058  53.1569  88.0660 0001003  61.3704 298.7415 15.69766173 51637
STARLINK-11454 [DTC]    
1 62059U 24217C   25284.26996440  .00201544  00000+0  16241-2 0  9990
2 62059  53.1571  87.9797 0000772 130.1719 229.9367 15.69772722 51700
STARLINK-11473 [DTC]    
1 62060U 24217D   25284.27977481  .00224881  00000+0  18051-2 0  9997
2 62060  53.1569  88.0411 0002394 148.1127 212.0036 15.69790724 51706
STARLINK-11429 [DTC]    
1 62061U 24217E   25284.26506093  .00173190  00000+0  14013-2 0  9994
2 62061  53.1573  87.9465 0000502 105.6865 254.4209 15.69769143 51708
